{"type":"FeatureCollection","features":[{"type":"Feature","properties":{"COD_POSTAL":"51002"},"geometry":{"type":"Polygon","coordinates":[[[-5.33127,35.89428],[-5.33168,35.89451],[-5.33219,35.89409],[-5.3321,35.89376],[-5.33486,35.8931],[-5.33477,35.89224],[-5.33508,35.89155],[-5.33582,35.89112],[-5.33687,35.88969],[-5.33921,35.88963],[-5.33995,35.88989],[-5.3445,35.88745],[-5.34533,35.88561],[-5.3462,35.88579],[-5.34677,35.88527],[-5.34624,35.88476],[-5.34542,35.88481],[-5.34517,35.88521],[-5.34324,35.88509],[-5.34373,35.88466],[-5.34366,35.88442],[-5.34578,35.88312],[-5.34562,35.8829],[-5.33812,35.88263],[-5.33538,35.88217],[-5.33359,35.88159],[-5.33389,35.88154],[-5.33387,35.88137],[-5.33346,35.88119],[-5.33308,35.88121],[-5.33308,35.88094],[-5.33343,35.88072],[-5.334,35.88086],[-5.33419,35.88133],[-5.33443,35.88076],[-5.33589,35.88038],[-5.33708,35.87965],[-5.33774,35.87886],[-5.33945,35.87784],[-5.33902,35.87742],[-5.33759,35.87849],[-5.33556,35.87944],[-5.33528,35.87898],[-5.3348,35.87933],[-5.33334,35.8795],[-5.33199,35.87887],[-5.32987,35.8787],[-5.3289,35.8783],[-5.32785,35.87888],[-5.3278,35.87859],[-5.32762,35.87861],[-5.32744,35.87878],[-5.32778,35.87896],[-5.32747,35.87906],[-5.3273,35.8796],[-5.32526,35.8814],[-5.32443,35.88266],[-5.3218,35.88564],[-5.32327,35.88668],[-5.32283,35.88724],[-5.32486,35.88721],[-5.32486,35.88741],[-5.32443,35.88737],[-5.32461,35.88778],[-5.32404,35.8877],[-5.32428,35.88821],[-5.32289,35.88769],[-5.32256,35.88791],[-5.32247,35.88817],[-5.32301,35.88792],[-5.32393,35.88837],[-5.32358,35.88878],[-5.32353,35.88999],[-5.3247,35.89037],[-5.32604,35.88957],[-5.32681,35.88942],[-5.32639,35.88892],[-5.32648,35.88869],[-5.32696,35.88863],[-5.32755,35.88994],[-5.32651,35.8906],[-5.32527,35.89083],[-5.32361,35.89079],[-5.32274,35.89028],[-5.32263,35.8904],[-5.32299,35.8908],[-5.32477,35.89192],[-5.32622,35.89234],[-5.32618,35.892],[-5.3266,35.89178],[-5.32677,35.89196],[-5.32651,35.89248],[-5.32719,35.89287],[-5.33118,35.89406],[-5.33127,35.89428]]]}},{"type":"Feature","properties":{"COD_POSTAL":"51001"},"geometry":{"type":"Polygon","coordinates":[[[-5.29948,35.89881],[-5.29945,35.89818],[-5.29922,35.89801],[-5.29947,35.89725],[-5.29928,35.89667],[-5.30106,35.89496],[-5.30731,35.89566],[-5.30785,35.89555],[-5.30775,35.89528],[-5.30198,35.89457],[-5.30172,35.89377],[-5.30178,35.89318],[-5.30251,35.89253],[-5.30251,35.8921],[-5.30359,35.89161],[-5.30423,35.8908],[-5.30606,35.89015],[-5.30673,35.89018],[-5.30771,35.8896],[-5.30822,35.88994],[-5.31246,35.88908],[-5.31273,35.88924],[-5.31287,35.89005],[-5.31494,35.89087],[-5.31507,35.89065],[-5.31309,35.88995],[-5.31316,35.88918],[-5.31341,35.88886],[-5.31528,35.889],[-5.31685,35.88971],[-5.31787,35.88953],[-5.31445,35.89327],[-5.31493,35.89352],[-5.31736,35.89114],[-5.31928,35.89166],[-5.31947,35.89178],[-5.31877,35.89242],[-5.3179,35.89189],[-5.32008,35.89343],[-5.31995,35.89357],[-5.32039,35.89387],[-5.32055,35.89375],[-5.32531,35.89719],[-5.32511,35.8975],[-5.32296,35.89848],[-5.32006,35.89846],[-5.31497,35.89611],[-5.31226,35.89579],[-5.31233,35.89536],[-5.31192,35.89532],[-5.31183,35.89572],[-5.3113,35.89571],[-5.31117,35.89595],[-5.315,35.89666],[-5.32007,35.89897],[-5.32322,35.89903],[-5.32556,35.8978],[-5.32675,35.89611],[-5.3286,35.89611],[-5.32984,35.8956],[-5.33088,35.89558],[-5.3315,35.89529],[-5.33148,35.89508],[-5.33204,35.89464],[-5.33371,35.89403],[-5.33348,35.89336],[-5.3321,35.89376],[-5.33219,35.89409],[-5.3319,35.8944],[-5.33142,35.89446],[-5.33117,35.89399],[-5.32719,35.89287],[-5.32651,35.89248],[-5.32677,35.89196],[-5.3266,35.89178],[-5.32618,35.892],[-5.32622,35.89234],[-5.32477,35.89192],[-5.32299,35.8908],[-5.32263,35.8904],[-5.32274,35.89028],[-5.32361,35.89079],[-5.32527,35.89083],[-5.32651,35.8906],[-5.32755,35.88994],[-5.32696,35.88863],[-5.32648,35.88869],[-5.32639,35.88892],[-5.32681,35.88942],[-5.32604,35.88957],[-5.3247,35.89037],[-5.32353,35.88999],[-5.32358,35.88878],[-5.32393,35.88837],[-5.32301,35.88792],[-5.32247,35.88817],[-5.32256,35.88791],[-5.32289,35.88769],[-5.32428,35.88821],[-5.32404,35.8877],[-5.32461,35.88778],[-5.32443,35.88737],[-5.32486,35.88741],[-5.32486,35.88721],[-5.32283,35.88724],[-5.32327,35.88668],[-5.3218,35.88564],[-5.32026,35.88668],[-5.31896,35.8872],[-5.31842,35.88692],[-5.31863,35.88723],[-5.31797,35.88728],[-5.31759,35.88653],[-5.31713,35.88684],[-5.31546,35.88708],[-5.31364,35.8867],[-5.31343,35.88649],[-5.31349,35.88606],[-5.31307,35.88627],[-5.31251,35.88613],[-5.31097,35.88497],[-5.30835,35.88439],[-5.30774,35.88453],[-5.30723,35.88421],[-5.30637,35.88455],[-5.30597,35.88432],[-5.30607,35.88465],[-5.3055,35.8845],[-5.30548,35.88472],[-5.30505,35.8847],[-5.30504,35.88487],[-5.30356,35.88546],[-5.30222,35.88558],[-5.30199,35.88594],[-5.30079,35.88589],[-5.30051,35.88614],[-5.30025,35.88591],[-5.29999,35.8864],[-5.29979,35.88634],[-5.30013,35.88651],[-5.30004,35.88683],[-5.29976,35.88686],[-5.2998,35.88722],[-5.2987,35.8885],[-5.29848,35.88863],[-5.2982,35.88838],[-5.298,35.8886],[-5.29812,35.8889],[-5.29744,35.88919],[-5.29857,35.88915],[-5.29925,35.88946],[-5.29948,35.89085],[-5.30029,35.89216],[-5.29939,35.89252],[-5.29973,35.89315],[-5.2992,35.89374],[-5.29829,35.89437],[-5.29769,35.89424],[-5.29713,35.89466],[-5.29745,35.8956],[-5.29652,35.89624],[-5.29694,35.89724],[-5.29779,35.89824],[-5.29947,35.89882],[-5.29948,35.89881]]]}},{"type":"Feature","properties":{"COD_POSTAL":"51005"},"geometry":{"type":"Polygon","coordinates":[[[-5.29737,35.88923],[-5.29643,35.88964],[-5.29542,35.88918],[-5.29537,35.88896],[-5.29458,35.88883],[-5.29476,35.88877],[-5.29458,35.8886],[-5.2943,35.88871],[-5.2944,35.88852],[-5.29417,35.88845],[-5.29328,35.88897],[-5.29321,35.8887],[-5.29172,35.88932],[-5.29182,35.88917],[-5.2915,35.88906],[-5.29133,35.88919],[-5.29159,35.88934],[-5.29129,35.88939],[-5.2913,35.88962],[-5.29081,35.88964],[-5.29095,35.89006],[-5.2903,35.89037],[-5.28782,35.89034],[-5.28796,35.89057],[-5.28719,35.89062],[-5.28653,35.89102],[-5.28677,35.89134],[-5.28626,35.89148],[-5.28642,35.89169],[-5.28594,35.89175],[-5.28567,35.89222],[-5.28552,35.89204],[-5.28509,35.89253],[-5.28517,35.89294],[-5.2847,35.89298],[-5.28491,35.89325],[-5.28427,35.89321],[-5.2838,35.89386],[-5.28399,35.89409],[-5.28329,35.89395],[-5.2828,35.89489],[-5.28222,35.89476],[-5.28171,35.89403],[-5.2811,35.89381],[-5.28011,35.89475],[-5.28029,35.89496],[-5.28,35.89511],[-5.27996,35.89489],[-5.27974,35.89522],[-5.28061,35.89536],[-5.27997,35.89565],[-5.2804,35.89561],[-5.28043,35.89583],[-5.2801,35.89602],[-5.28031,35.8961],[-5.27926,35.8965],[-5.27882,35.89706],[-5.279,35.89723],[-5.27887,35.89745],[-5.27816,35.89781],[-5.27875,35.89802],[-5.279,35.89779],[-5.27851,35.89844],[-5.27919,35.8987],[-5.27863,35.89914],[-5.27875,35.89957],[-5.27817,35.90009],[-5.27878,35.90007],[-5.27865,35.90052],[-5.27899,35.90079],[-5.27969,35.90034],[-5.28053,35.90006],[-5.28061,35.90025],[-5.28093,35.90018],[-5.28133,35.89987],[-5.28155,35.90001],[-5.28139,35.90034],[-5.28257,35.90029],[-5.28301,35.90081],[-5.28323,35.9006],[-5.28329,35.90081],[-5.2836,35.90073],[-5.28382,35.90088],[-5.28371,35.90148],[-5.28419,35.9016],[-5.28411,35.90207],[-5.28442,35.90206],[-5.28411,35.90248],[-5.28442,35.90246],[-5.28386,35.90291],[-5.28398,35.90315],[-5.28457,35.90305],[-5.28487,35.90339],[-5.28529,35.90322],[-5.28517,35.90343],[-5.28597,35.90339],[-5.2865,35.90392],[-5.28635,35.90467],[-5.28724,35.90451],[-5.28757,35.90478],[-5.28767,35.90538],[-5.28788,35.90518],[-5.2885,35.90544],[-5.28849,35.90578],[-5.28965,35.90497],[-5.28974,35.90434],[-5.29041,35.90351],[-5.29145,35.9033],[-5.29137,35.90352],[-5.292,35.90326],[-5.29252,35.90342],[-5.29308,35.90304],[-5.29275,35.9029],[-5.29326,35.90267],[-5.29406,35.90252],[-5.29437,35.90287],[-5.29546,35.90265],[-5.29595,35.90227],[-5.29635,35.90234],[-5.2963,35.90218],[-5.29652,35.9022],[-5.29636,35.90214],[-5.2967,35.90217],[-5.29693,35.90189],[-5.29694,35.90207],[-5.29719,35.902],[-5.29754,35.90174],[-5.29742,35.90162],[-5.29765,35.90168],[-5.29809,35.90129],[-5.29796,35.90113],[-5.29838,35.90105],[-5.29808,35.90068],[-5.29859,35.90063],[-5.2995,35.89986],[-5.29941,35.89956],[-5.29969,35.89947],[-5.29973,35.89917],[-5.29947,35.89882],[-5.29779,35.89824],[-5.29694,35.89724],[-5.29652,35.89624],[-5.29745,35.8956],[-5.29713,35.89466],[-5.29769,35.89424],[-5.29829,35.89437],[-5.2992,35.89374],[-5.29973,35.89315],[-5.29939,35.89252],[-5.30029,35.89216],[-5.29948,35.89085],[-5.29925,35.88946],[-5.29857,35.88915],[-5.29744,35.88919],[-5.29737,35.88923]]]}},{"type":"Feature","properties":{"COD_POSTAL":"51004"},"geometry":{"type":"Polygon","coordinates":[[[-5.3445,35.88745],[-5.33995,35.88989],[-5.33921,35.88963],[-5.33687,35.88969],[-5.33582,35.89112],[-5.33508,35.89155],[-5.33477,35.89224],[-5.33486,35.8931],[-5.33344,35.89329],[-5.33371,35.89403],[-5.33466,35.89404],[-5.33627,35.89458],[-5.33786,35.89573],[-5.33977,35.89641],[-5.34052,35.89707],[-5.34087,35.89861],[-5.3415,35.89906],[-5.34373,35.89974],[-5.34499,35.9014],[-5.34568,35.90195],[-5.34553,35.90306],[-5.34575,35.9031],[-5.34629,35.90413],[-5.347,35.90466],[-5.34718,35.90582],[-5.34773,35.90681],[-5.34738,35.90674],[-5.34738,35.90691],[-5.34778,35.90705],[-5.34809,35.90773],[-5.34929,35.90773],[-5.35015,35.90831],[-5.35046,35.90892],[-5.35211,35.90909],[-5.35335,35.90978],[-5.35439,35.91002],[-5.35469,35.91051],[-5.35527,35.91046],[-5.3573,35.9121],[-5.35869,35.91295],[-5.35996,35.9134],[-5.36019,35.91377],[-5.35978,35.91432],[-5.35983,35.91458],[-5.36038,35.91401],[-5.36122,35.91432],[-5.3617,35.9149],[-5.3629,35.91499],[-5.36368,35.91558],[-5.3641,35.91661],[-5.36463,35.91696],[-5.36444,35.91715],[-5.36506,35.91715],[-5.36505,35.9174],[-5.36551,35.91756],[-5.36573,35.91738],[-5.3666,35.91742],[-5.36684,35.91769],[-5.36703,35.91753],[-5.36696,35.91794],[-5.36795,35.9172],[-5.36981,35.91636],[-5.37129,35.91632],[-5.37297,35.9169],[-5.37406,35.91634],[-5.3756,35.91605],[-5.37762,35.9163],[-5.37805,35.91615],[-5.37843,35.91635],[-5.3786,35.9161],[-5.37951,35.91586],[-5.37927,35.91539],[-5.3795,35.91474],[-5.382,35.9122],[-5.38127,35.91157],[-5.3806,35.9115],[-5.37985,35.91074],[-5.37982,35.90895],[-5.3784,35.90839],[-5.37836,35.90658],[-5.37794,35.90603],[-5.37736,35.90585],[-5.37697,35.90521],[-5.37654,35.90294],[-5.37753,35.90234],[-5.37767,35.90123],[-5.3766,35.89874],[-5.37663,35.89849],[-5.37766,35.8979],[-5.37722,35.89697],[-5.37783,35.89593],[-5.3774,35.89524],[-5.37597,35.89487],[-5.37491,35.89385],[-5.37506,35.89316],[-5.3746,35.89231],[-5.37497,35.89083],[-5.37573,35.88925],[-5.37519,35.88792],[-5.37457,35.88719],[-5.37436,35.88621],[-5.37343,35.8855],[-5.37382,35.8849],[-5.37362,35.88399],[-5.37169,35.8813],[-5.37069,35.88051],[-5.36933,35.88076],[-5.36907,35.87995],[-5.36842,35.87933],[-5.36782,35.87928],[-5.36698,35.87959],[-5.36347,35.87855],[-5.3629,35.87869],[-5.36011,35.8772],[-5.35983,35.87663],[-5.35982,35.87566],[-5.3588,35.87525],[-5.35877,35.8744],[-5.35838,35.87422],[-5.35707,35.87448],[-5.35657,35.87421],[-5.35567,35.87552],[-5.35657,35.8775],[-5.35738,35.87828],[-5.35705,35.87986],[-5.35283,35.88142],[-5.35274,35.8822],[-5.35125,35.88253],[-5.35185,35.88472],[-5.35112,35.88584],[-5.34834,35.88615],[-5.34672,35.88666],[-5.34492,35.88648],[-5.3445,35.88745]]]}},{"type":"Feature","properties":{"COD_POSTAL":"51003"},"geometry":{"type":"Polygon","coordinates":[[[-5.34595,35.88667],[-5.35112,35.88584],[-5.35185,35.88472],[-5.35125,35.88253],[-5.35274,35.8822],[-5.35283,35.88142],[-5.35705,35.87986],[-5.35738,35.87828],[-5.35657,35.8775],[-5.35567,35.87552],[-5.35657,35.87421],[-5.35625,35.87341],[-5.35654,35.8732],[-5.35519,35.87269],[-5.35419,35.87328],[-5.35135,35.87271],[-5.35098,35.87307],[-5.35068,35.87484],[-5.35017,35.87559],[-5.34982,35.87566],[-5.34925,35.87544],[-5.34857,35.87475],[-5.34822,35.87266],[-5.34788,35.87222],[-5.34381,35.87103],[-5.34281,35.87323],[-5.34185,35.87306],[-5.34229,35.8734],[-5.3419,35.87446],[-5.3408,35.87581],[-5.33905,35.87734],[-5.33945,35.87784],[-5.33774,35.87886],[-5.33708,35.87965],[-5.33589,35.88038],[-5.33443,35.88076],[-5.33431,35.88128],[-5.33377,35.88078],[-5.33308,35.88094],[-5.33308,35.88121],[-5.33387,35.88137],[-5.33389,35.88154],[-5.33359,35.88159],[-5.33538,35.88217],[-5.33812,35.88263],[-5.34562,35.8829],[-5.34578,35.88312],[-5.34366,35.88442],[-5.34373,35.88466],[-5.34324,35.88509],[-5.34517,35.88521],[-5.34542,35.88481],[-5.34624,35.88476],[-5.34677,35.88527],[-5.3462,35.88579],[-5.34533,35.88561],[-5.34492,35.88648],[-5.34595,35.88667]]]}}]}