{"type":"FeatureCollection","features":[{"type":"Feature","properties":{"COD_POSTAL":"52006"},"geometry":{"type":"Polygon","coordinates":[[[-2.93839,35.28608],[-2.93972,35.28619],[-2.94138,35.28683],[-2.9406,35.28628],[-2.94094,35.28579],[-2.94187,35.28624],[-2.94184,35.28667],[-2.94262,35.28629],[-2.94271,35.28602],[-2.94224,35.28567],[-2.94298,35.28525],[-2.94285,35.28407],[-2.94198,35.28209],[-2.94146,35.28197],[-2.94125,35.28145],[-2.94167,35.28127],[-2.94158,35.28071],[-2.94348,35.28002],[-2.94207,35.27764],[-2.94341,35.2772],[-2.94381,35.27795],[-2.9442,35.27797],[-2.94499,35.27704],[-2.94824,35.27508],[-2.95303,35.27523],[-2.96034,35.27696],[-2.96083,35.27674],[-2.9541,35.27273],[-2.95058,35.26546],[-2.93883,35.26744],[-2.92953,35.27182],[-2.92944,35.27223],[-2.92793,35.27299],[-2.92415,35.28007],[-2.92755,35.27439],[-2.9319,35.2752],[-2.93303,35.27602],[-2.93329,35.27658],[-2.93175,35.27788],[-2.93346,35.27671],[-2.93521,35.27828],[-2.93635,35.27997],[-2.93703,35.28143],[-2.93703,35.28288],[-2.93461,35.28331],[-2.93721,35.28306],[-2.93753,35.28423],[-2.93738,35.28588],[-2.93839,35.28608]]]}},{"type":"Feature","properties":{"COD_POSTAL":"52005"},"geometry":{"type":"Polygon","coordinates":[[[-2.94731,35.29039],[-2.94975,35.29295],[-2.95093,35.29351],[-2.95549,35.29336],[-2.95714,35.29476],[-2.95788,35.29589],[-2.95895,35.29684],[-2.95938,35.29677],[-2.96015,35.29591],[-2.96074,35.2958],[-2.96239,35.29664],[-2.96279,35.29551],[-2.96275,35.29481],[-2.96322,35.29396],[-2.96554,35.29434],[-2.96929,35.29593],[-2.96989,35.29391],[-2.97032,35.28865],[-2.96524,35.28837],[-2.96487,35.28716],[-2.96767,35.2861],[-2.96853,35.28198],[-2.96688,35.28175],[-2.96299,35.2783],[-2.96083,35.27674],[-2.96034,35.27696],[-2.95303,35.27523],[-2.94824,35.27508],[-2.94499,35.27704],[-2.9442,35.27797],[-2.94381,35.27795],[-2.94341,35.2772],[-2.94198,35.27768],[-2.94348,35.28002],[-2.94158,35.28071],[-2.94167,35.28127],[-2.94125,35.28145],[-2.94146,35.28197],[-2.94198,35.28209],[-2.94259,35.28329],[-2.94298,35.28525],[-2.94226,35.28554],[-2.94271,35.28602],[-2.94262,35.28629],[-2.94184,35.28667],[-2.94187,35.28624],[-2.94122,35.28584],[-2.94094,35.28579],[-2.9406,35.28628],[-2.94138,35.28683],[-2.94389,35.2875],[-2.94518,35.28818],[-2.94706,35.29024],[-2.94731,35.29039]]]}},{"type":"Feature","properties":{"COD_POSTAL":"52001"},"geometry":{"type":"Polygon","coordinates":[[[-2.93605,35.29136],[-2.93588,35.29208],[-2.9355,35.29224],[-2.93516,35.29199],[-2.93472,35.29238],[-2.93516,35.29211],[-2.93542,35.2923],[-2.93485,35.2928],[-2.93403,35.2926],[-2.93398,35.29238],[-2.93445,35.29223],[-2.93397,35.29229],[-2.93379,35.29148],[-2.93449,35.29131],[-2.93151,35.29163],[-2.93172,35.293],[-2.92944,35.29284],[-2.92863,35.29072],[-2.92496,35.29165],[-2.92448,35.29026],[-2.92397,35.29016],[-2.92353,35.28877],[-2.92326,35.28885],[-2.92349,35.28945],[-2.9233,35.29024],[-2.924,35.29228],[-2.92431,35.29283],[-2.92485,35.29318],[-2.93212,35.29363],[-2.93199,35.29448],[-2.93347,35.29515],[-2.93341,35.29586],[-2.93365,35.29605],[-2.93413,35.29593],[-2.93429,35.29546],[-2.93468,35.29539],[-2.93472,35.29495],[-2.93435,35.29453],[-2.93514,35.2945],[-2.93535,35.2948],[-2.93564,35.29479],[-2.93521,35.29514],[-2.93498,35.29575],[-2.93521,35.29668],[-2.93606,35.29752],[-2.93675,35.29784],[-2.93661,35.29845],[-2.93696,35.29857],[-2.93691,35.29901],[-2.93771,35.29935],[-2.93811,35.30101],[-2.93891,35.30173],[-2.93891,35.3025],[-2.9394,35.30281],[-2.94029,35.30255],[-2.94119,35.30276],[-2.94168,35.30177],[-2.94241,35.3012],[-2.941,35.30083],[-2.94125,35.29904],[-2.93991,35.299],[-2.93935,35.2985],[-2.94098,35.2983],[-2.94093,35.29803],[-2.94131,35.29801],[-2.94097,35.29773],[-2.9419,35.29558],[-2.94191,35.295],[-2.9425,35.29401],[-2.94264,35.29322],[-2.94248,35.29307],[-2.94271,35.29277],[-2.94191,35.29245],[-2.9389,35.29223],[-2.93901,35.29188],[-2.93867,35.2915],[-2.94018,35.2903],[-2.94008,35.29006],[-2.93912,35.29015],[-2.93743,35.29108],[-2.93594,35.29137],[-2.93605,35.29136]]]}},{"type":"Feature","properties":{"COD_POSTAL":"52003"},"geometry":{"type":"MultiPolygon","coordinates":[[[[-2.93993,35.29052],[-2.94046,35.29098],[-2.94001,35.29045],[-2.93993,35.29052]]],[[[-2.94804,35.31596],[-2.94917,35.31605],[-2.94935,35.31656],[-2.94988,35.31667],[-2.94996,35.31732],[-2.95061,35.31862],[-2.95223,35.31971],[-2.95263,35.32029],[-2.96011,35.31588],[-2.96347,35.31003],[-2.96766,35.30151],[-2.96929,35.29593],[-2.96554,35.29434],[-2.96322,35.29396],[-2.96275,35.29481],[-2.96279,35.29551],[-2.96239,35.29664],[-2.96074,35.2958],[-2.96015,35.29591],[-2.95938,35.29677],[-2.95895,35.29684],[-2.95788,35.29589],[-2.95714,35.29476],[-2.95549,35.29336],[-2.95093,35.29351],[-2.94975,35.29295],[-2.94706,35.29024],[-2.94549,35.2902],[-2.94553,35.29055],[-2.94502,35.29061],[-2.94356,35.29277],[-2.94303,35.29309],[-2.94398,35.29347],[-2.94451,35.2934],[-2.94486,35.29283],[-2.94523,35.29311],[-2.94539,35.29347],[-2.94459,35.29383],[-2.94522,35.29439],[-2.94561,35.29562],[-2.94725,35.29665],[-2.94823,35.29662],[-2.94892,35.29758],[-2.94904,35.29877],[-2.95047,35.30103],[-2.95092,35.30128],[-2.95217,35.30116],[-2.95285,35.30356],[-2.95473,35.30479],[-2.95364,35.30567],[-2.95357,35.3063],[-2.95418,35.30735],[-2.95354,35.30839],[-2.94873,35.31315],[-2.94804,35.31596]]]]}},{"type":"Feature","properties":{"COD_POSTAL":"52002"},"geometry":{"type":"Polygon","coordinates":[[[-2.94138,35.3028],[-2.94513,35.30623],[-2.94616,35.30769],[-2.9469,35.30809],[-2.94718,35.30893],[-2.94741,35.31002],[-2.94721,35.31053],[-2.94619,35.31166],[-2.94617,35.31241],[-2.94566,35.3133],[-2.94449,35.31421],[-2.94469,35.31507],[-2.94583,35.316],[-2.94804,35.31596],[-2.94873,35.31315],[-2.95354,35.30839],[-2.95418,35.30735],[-2.95357,35.3063],[-2.95364,35.30567],[-2.95473,35.30479],[-2.95285,35.30356],[-2.95217,35.30116],[-2.95092,35.30128],[-2.95047,35.30103],[-2.94904,35.29877],[-2.94892,35.29758],[-2.94823,35.29662],[-2.94725,35.29665],[-2.94561,35.29562],[-2.94522,35.29439],[-2.94459,35.29383],[-2.94539,35.29347],[-2.94486,35.29283],[-2.94451,35.2934],[-2.94349,35.29341],[-2.94307,35.29309],[-2.94264,35.29322],[-2.94097,35.29773],[-2.94131,35.29801],[-2.94093,35.29803],[-2.94098,35.2983],[-2.93935,35.2985],[-2.93991,35.299],[-2.94125,35.29904],[-2.941,35.30083],[-2.94241,35.3012],[-2.94168,35.30177],[-2.94119,35.30276],[-2.94138,35.3028]]]}},{"type":"Feature","properties":{"COD_POSTAL":"52004"},"geometry":{"type":"Polygon","coordinates":[[[-2.93988,35.29056],[-2.93867,35.2915],[-2.93901,35.29188],[-2.9389,35.29223],[-2.94191,35.29245],[-2.94271,35.29277],[-2.94248,35.29307],[-2.9427,35.29322],[-2.94356,35.29277],[-2.94502,35.29061],[-2.94553,35.29055],[-2.94549,35.2902],[-2.94707,35.29025],[-2.94582,35.28872],[-2.94389,35.2875],[-2.94245,35.28724],[-2.93972,35.28619],[-2.93738,35.28588],[-2.93681,35.28781],[-2.93419,35.28696],[-2.93394,35.28722],[-2.93338,35.28701],[-2.93343,35.28657],[-2.93299,35.28655],[-2.93155,35.289],[-2.93182,35.28935],[-2.93227,35.28925],[-2.93224,35.2888],[-2.93298,35.28745],[-2.93548,35.28787],[-2.93535,35.28961],[-2.9351,35.28956],[-2.93517,35.28826],[-2.93498,35.28956],[-2.93475,35.28955],[-2.93483,35.28825],[-2.93465,35.28955],[-2.93429,35.28953],[-2.93436,35.28823],[-2.93418,35.28953],[-2.93347,35.2895],[-2.93354,35.28817],[-2.93312,35.28815],[-2.9328,35.28858],[-2.93313,35.28876],[-2.93282,35.28974],[-2.93592,35.28995],[-2.93607,35.29118],[-2.93556,35.29109],[-2.93494,35.29142],[-2.93743,35.29108],[-2.93825,35.29048],[-2.94008,35.29006],[-2.94026,35.29012],[-2.94001,35.29045],[-2.94046,35.29098],[-2.93993,35.29052],[-2.93988,35.29056]]]}}]}